{
  "type": "FeatureCollection",
  "generator": "overpass-turbo",
  "copyright": "The data included in this document is from www.openstreetmap.org. The data is made available under ODbL.",
  "timestamp": "2026-06-27T11:20:30Z",
  "features": [
    {
      "type": "Feature",
      "properties": {
        "@id": "relation/10524863",
        "admin_level": "7",
        "boundary": "administrative",
        "name": "थाक्रे गाउँपालिका",
        "name:en": "Thakre",
        "name:fa": "دهداری تاکره",
        "name:ne": "थाक्रे गाउँपालिका",
        "name:suffix": "Gaunpalika",
        "name:suffix:en": "Rural Municipality",
        "name:ur": "تھاکرے دیہی بلدیہ",
        "type": "boundary"
      },
      "geometry": {
        "type": "Polygon",
        "coordinates": [
          [
            [
              85.041177,
              27.6916794
            ],
            [
              85.0425204,
              27.6901745
            ],
            [
              85.0546082,
              27.6988384
            ],
            [
              85.0547019,
              27.6987691
            ],
            [
              85.0583923,
              27.6960388
            ],
            [
              85.0583268,
              27.6937863
            ],
            [
              85.0615658,
              27.6935192
            ],
            [
              85.0651901,
              27.6957694
            ],
            [
              85.0663029,
              27.7022225
            ],
            [
              85.070253,
              27.7025509
            ],
            [
              85.0741455,
              27.7076839
            ],
            [
              85.076614,
              27.7080841
            ],
            [
              85.0809726,
              27.7055668
            ],
            [
              85.0839394,
              27.7060482
            ],
            [
              85.0890487,
              27.7111432
            ],
            [
              85.0953711,
              27.7101174
            ],
            [
              85.1005378,
              27.7079116
            ],
            [
              85.1026359,
              27.7040571
            ],
            [
              85.1065885,
              27.7014404
            ],
            [
              85.1095961,
              27.7010496
            ],
            [
              85.1125715,
              27.6990885
            ],
            [
              85.1172699,
              27.6940671
            ],
            [
              85.1175815,
              27.6982871
            ],
            [
              85.1192931,
              27.7015517
            ],
            [
              85.1202298,
              27.703904
            ],
            [
              85.1204938,
              27.7065125
            ],
            [
              85.1206556,
              27.707945
            ],
            [
              85.1212602,
              27.7098523
            ],
            [
              85.1216945,
              27.7131844
            ],
            [
              85.1221884,
              27.7142926
            ],
            [
              85.1221628,
              27.7156646
            ],
            [
              85.1220181,
              27.716916
            ],
            [
              85.1212602,
              27.7181221
            ],
            [
              85.1209622,
              27.7193207
            ],
            [
              85.1204086,
              27.720655
            ],
            [
              85.1202043,
              27.7221098
            ],
            [
              85.1210132,
              27.7238737
            ],
            [
              85.1226312,
              27.726331
            ],
            [
              85.1240022,
              27.7290974
            ],
            [
              85.1245642,
              27.7307104
            ],
            [
              85.1242576,
              27.7321651
            ],
            [
              85.1246153,
              27.7331148
            ],
            [
              85.1257904,
              27.7334766
            ],
            [
              85.1261651,
              27.7347881
            ],
            [
              85.125816,
              27.7358583
            ],
            [
              85.125192,
              27.7373964
            ],
            [
              85.1256584,
              27.7374914
            ],
            [
              85.1260646,
              27.7375793
            ],
            [
              85.1264617,
              27.737662
            ],
            [
              85.1272514,
              27.7377208
            ],
            [
              85.1287894,
              27.7376834
            ],
            [
              85.1297348,
              27.7375585
            ],
            [
              85.130244,
              27.7373062
            ],
            [
              85.1307249,
              27.7372231
            ],
            [
              85.1309989,
              27.7371062
            ],
            [
              85.1313407,
              27.7367626
            ],
            [
              85.1324146,
              27.736203
            ],
            [
              85.132911,
              27.7359061
            ],
            [
              85.1331279,
              27.7358001
            ],
            [
              85.133372,
              27.7357651
            ],
            [
              85.1335964,
              27.7358038
            ],
            [
              85.133841,
              27.7359176
            ],
            [
              85.1342787,
              27.7362292
            ],
            [
              85.134441,
              27.7363125
            ],
            [
              85.1346468,
              27.7363275
            ],
            [
              85.1349184,
              27.7362573
            ],
            [
              85.1352097,
              27.736153
            ],
            [
              85.136022,
              27.7386214
            ],
            [
              85.1365029,
              27.740584
            ],
            [
              85.137082,
              27.7415487
            ],
            [
              85.1366391,
              27.7434479
            ],
            [
              85.1372012,
              27.7456486
            ],
            [
              85.1372693,
              27.7473216
            ],
            [
              85.1376951,
              27.7489645
            ],
            [
              85.1377291,
              27.7508636
            ],
            [
              85.1373007,
              27.7516001
            ],
            [
              85.1368776,
              27.7519337
            ],
            [
              85.1347146,
              27.7521749
            ],
            [
              85.1338972,
              27.753049
            ],
            [
              85.1336758,
              27.7544356
            ],
            [
              85.1324836,
              27.7555208
            ],
            [
              85.1322963,
              27.7568471
            ],
            [
              85.128839,
              27.7583994
            ],
            [
              85.1276468,
              27.7586857
            ],
            [
              85.1270507,
              27.7594393
            ],
            [
              85.1276762,
              27.7606226
            ],
            [
              85.1273204,
              27.760654
            ],
            [
              85.1270978,
              27.7606967
            ],
            [
              85.127019,
              27.7608695
            ],
            [
              85.1269976,
              27.7611045
            ],
            [
              85.1269149,
              27.7614336
            ],
            [
              85.1267543,
              27.7615274
            ],
            [
              85.1266236,
              27.761529
            ],
            [
              85.1264277,
              27.7614227
            ],
            [
              85.1262707,
              27.761095
            ],
            [
              85.1261497,
              27.7609202
            ],
            [
              85.1260464,
              27.7608706
            ],
            [
              85.1259661,
              27.760896
            ],
            [
              85.1258285,
              27.7610674
            ],
            [
              85.1256999,
              27.7611199
            ],
            [
              85.1254877,
              27.7611253
            ],
            [
              85.1253758,
              27.7610432
            ],
            [
              85.1253283,
              27.7609161
            ],
            [
              85.1252312,
              27.7607257
            ],
            [
              85.1250399,
              27.760636
            ],
            [
              85.1247957,
              27.7606461
            ],
            [
              85.1244819,
              27.7607169
            ],
            [
              85.1243558,
              27.7607809
            ],
            [
              85.1242685,
              27.7609008
            ],
            [
              85.1242676,
              27.7610493
            ],
            [
              85.1243421,
              27.7613026
            ],
            [
              85.1245369,
              27.7615612
            ],
            [
              85.1246869,
              27.7617158
            ],
            [
              85.1247189,
              27.7618383
            ],
            [
              85.124632,
              27.7621123
            ],
            [
              85.1245218,
              27.7624132
            ],
            [
              85.1244703,
              27.7629525
            ],
            [
              85.1243904,
              27.7630687
            ],
            [
              85.1242513,
              27.7631453
            ],
            [
              85.1240668,
              27.7631463
            ],
            [
              85.1239352,
              27.7630724
            ],
            [
              85.1238228,
              27.7628067
            ],
            [
              85.1237365,
              27.762736
            ],
            [
              85.1231598,
              27.7625484
            ],
            [
              85.1229671,
              27.7625087
            ],
            [
              85.1228373,
              27.7624995
            ],
            [
              85.1227663,
              27.7625362
            ],
            [
              85.1225986,
              27.7627383
            ],
            [
              85.1222729,
              27.7630093
            ],
            [
              85.121816,
              27.7633728
            ],
            [
              85.1214462,
              27.7636818
            ],
            [
              85.1213855,
              27.7639301
            ],
            [
              85.1213179,
              27.7641184
            ],
            [
              85.1213151,
              27.7643277
            ],
            [
              85.1213639,
              27.7644934
            ],
            [
              85.1216091,
              27.7650585
            ],
            [
              85.121709,
              27.7652758
            ],
            [
              85.1217329,
              27.7653927
            ],
            [
              85.1216747,
              27.7655064
            ],
            [
              85.1214451,
              27.7656654
            ],
            [
              85.1212196,
              27.7658785
            ],
            [
              85.1211252,
              27.7660227
            ],
            [
              85.121105,
              27.7661185
            ],
            [
              85.121023,
              27.7661798
            ],
            [
              85.1208887,
              27.7661947
            ],
            [
              85.1206505,
              27.7661702
            ],
            [
              85.120482,
              27.7662023
            ],
            [
              85.1201827,
              27.7663925
            ],
            [
              85.1201328,
              27.7666181
            ],
            [
              85.120161,
              27.766753
            ],
            [
              85.1202829,
              27.7669354
            ],
            [
              85.1203039,
              27.7670827
            ],
            [
              85.1201524,
              27.7671841
            ],
            [
              85.119898,
              27.7673002
            ],
            [
              85.1195512,
              27.7674406
            ],
            [
              85.1190788,
              27.7676863
            ],
            [
              85.1188584,
              27.7677121
            ],
            [
              85.1186913,
              27.7676131
            ],
            [
              85.1186021,
              27.7674604
            ],
            [
              85.1185484,
              27.7672847
            ],
            [
              85.1185484,
              27.7670189
            ],
            [
              85.1183017,
              27.7666392
            ],
            [
              85.1180978,
              27.7664114
            ],
            [
              85.1179154,
              27.7664161
            ],
            [
              85.1176896,
              27.766497
            ],
            [
              85.1174165,
              27.7664398
            ],
            [
              85.1172073,
              27.7664873
            ],
            [
              85.1171537,
              27.7666724
            ],
            [
              85.1172288,
              27.766924
            ],
            [
              85.1172824,
              27.7673132
            ],
            [
              85.1173307,
              27.7677072
            ],
            [
              85.117218,
              27.76803
            ],
            [
              85.1168205,
              27.7682628
            ],
            [
              85.1166065,
              27.7683338
            ],
            [
              85.1165475,
              27.7684951
            ],
            [
              85.1163544,
              27.7686803
            ],
            [
              85.1161393,
              27.7687327
            ],
            [
              85.1157482,
              27.7686755
            ],
            [
              85.1154424,
              27.7687515
            ],
            [
              85.1150878,
              27.7689795
            ],
            [
              85.1149328,
              27.7692356
            ],
            [
              85.1149357,
              27.7695177
            ],
            [
              85.1149313,
              27.7697729
            ],
            [
              85.1147935,
              27.7700825
            ],
            [
              85.1147733,
              27.770484
            ],
            [
              85.1147612,
              27.7707106
            ],
            [
              85.1146431,
              27.7708922
            ],
            [
              85.1144676,
              27.7709414
            ],
            [
              85.1143182,
              27.7711293
            ],
            [
              85.1143322,
              27.7713306
            ],
            [
              85.114479,
              27.7716119
            ],
            [
              85.1147767,
              27.772011
            ],
            [
              85.1152896,
              27.772657
            ],
            [
              85.1155699,
              27.773103
            ],
            [
              85.1156791,
              27.7735176
            ],
            [
              85.1156396,
              27.7737752
            ],
            [
              85.115404,
              27.7739519
            ],
            [
              85.1151424,
              27.7740331
            ],
            [
              85.114842,
              27.7740111
            ],
            [
              85.1145761,
              27.7739237
            ],
            [
              85.1143864,
              27.773827
            ],
            [
              85.1141711,
              27.7736591
            ],
            [
              85.1138012,
              27.7733411
            ],
            [
              85.1133444,
              27.7730758
            ],
            [
              85.1131628,
              27.7728238
            ],
            [
              85.1130394,
              27.772558
            ],
            [
              85.1127819,
              27.772482
            ],
            [
              85.1124172,
              27.7726671
            ],
            [
              85.1120738,
              27.7730563
            ],
            [
              85.1116987,
              27.773509
            ],
            [
              85.1114445,
              27.7740918
            ],
            [
              85.1114126,
              27.774851
            ],
            [
              85.1113624,
              27.7752478
            ],
            [
              85.1111518,
              27.7755349
            ],
            [
              85.1108752,
              27.7757295
            ],
            [
              85.1105734,
              27.7758439
            ],
            [
              85.1102278,
              27.775908
            ],
            [
              85.1098327,
              27.7758945
            ],
            [
              85.1095603,
              27.7758479
            ],
            [
              85.1092624,
              27.7757804
            ],
            [
              85.108904,
              27.7755502
            ],
            [
              85.108818,
              27.7753665
            ],
            [
              85.1087035,
              27.7751285
            ],
            [
              85.1086964,
              27.7747828
            ],
            [
              85.1087747,
              27.7744233
            ],
            [
              85.1084789,
              27.7741627
            ],
            [
              85.1081417,
              27.7741148
            ],
            [
              85.1074765,
              27.7742145
            ],
            [
              85.1068006,
              27.7741385
            ],
            [
              85.1063768,
              27.7741717
            ],
            [
              85.1057975,
              27.7742667
            ],
            [
              85.1053621,
              27.7745472
            ],
            [
              85.1050464,
              27.7748979
            ],
            [
              85.1044134,
              27.7754153
            ],
            [
              85.1040648,
              27.7757048
            ],
            [
              85.1036839,
              27.7756763
            ],
            [
              85.1033459,
              27.7757096
            ],
            [
              85.1031153,
              27.7758899
            ],
            [
              85.1026754,
              27.7761272
            ],
            [
              85.1021765,
              27.7763883
            ],
            [
              85.1018546,
              27.776692
            ],
            [
              85.1015864,
              27.7769009
            ],
            [
              85.1011672,
              27.7772336
            ],
            [
              85.1008989,
              27.7775611
            ],
            [
              85.1006468,
              27.7780689
            ],
            [
              85.100138,
              27.7783295
            ],
            [
              85.0997035,
              27.7783675
            ],
            [
              85.099328,
              27.7782963
            ],
            [
              85.0988613,
              27.7781729
            ],
            [
              85.0983946,
              27.7781539
            ],
            [
              85.0980352,
              27.7782583
            ],
            [
              85.0978098,
              27.7784766
            ],
            [
              85.0977616,
              27.7787329
            ],
            [
              85.0975416,
              27.778937
            ],
            [
              85.0971768,
              27.7791743
            ],
            [
              85.0968327,
              27.7795497
            ],
            [
              85.0967584,
              27.7798815
            ],
            [
              85.0956797,
              27.7789845
            ],
            [
              85.0950666,
              27.7774023
            ],
            [
              85.0933975,
              27.7755639
            ],
            [
              85.0915071,
              27.7731831
            ],
            [
              85.088135,
              27.771646
            ],
            [
              85.0871642,
              27.770124
            ],
            [
              85.0850694,
              27.7687075
            ],
            [
              85.0827915,
              27.7674157
            ],
            [
              85.0819112,
              27.7690477
            ],
            [
              85.0808211,
              27.7692732
            ],
            [
              85.0799221,
              27.7706949
            ],
            [
              85.0775367,
              27.7720603
            ],
            [
              85.076029,
              27.7720102
            ],
            [
              85.0739338,
              27.7727242
            ],
            [
              85.0700902,
              27.774578
            ],
            [
              85.0689011,
              27.7754986
            ],
            [
              85.0682074,
              27.7765195
            ],
            [
              85.0660768,
              27.7760686
            ],
            [
              85.0638117,
              27.7766447
            ],
            [
              85.0611078,
              27.7773524
            ],
            [
              85.0604495,
              27.7765758
            ],
            [
              85.0594727,
              27.7760122
            ],
            [
              85.0581065,
              27.7758494
            ],
            [
              85.0567262,
              27.775937
            ],
            [
              85.0557211,
              27.7768013
            ],
            [
              85.0555512,
              27.7775841
            ],
            [
              85.056252,
              27.7792124
            ],
            [
              85.0556716,
              27.780346
            ],
            [
              85.0549213,
              27.7809472
            ],
            [
              85.0537038,
              27.7810098
            ],
            [
              85.0529747,
              27.7815421
            ],
            [
              85.0525712,
              27.7825128
            ],
            [
              85.0526349,
              27.7840721
            ],
            [
              85.0517289,
              27.7846107
            ],
            [
              85.0506034,
              27.7846232
            ],
            [
              85.049301,
              27.7842349
            ],
            [
              85.048671,
              27.7839844
            ],
            [
              85.047673,
              27.7838968
            ],
            [
              85.0470005,
              27.7832768
            ],
            [
              85.0453513,
              27.7832392
            ],
            [
              85.0437586,
              27.7816486
            ],
            [
              85.0427464,
              27.7809534
            ],
            [
              85.0417838,
              27.7803835
            ],
            [
              85.0406937,
              27.780133
            ],
            [
              85.0397098,
              27.7800266
            ],
            [
              85.0396673,
              27.7795068
            ],
            [
              85.0389524,
              27.7791248
            ],
            [
              85.0376712,
              27.7783544
            ],
            [
              85.0363546,
              27.777772
            ],
            [
              85.0348186,
              27.7766823
            ],
            [
              85.0340046,
              27.7762627
            ],
            [
              85.0338347,
              27.7754235
            ],
            [
              85.0337781,
              27.7749099
            ],
            [
              85.0335181,
              27.7748278
            ],
            [
              85.0321756,
              27.7744341
            ],
            [
              85.030698,
              27.7740904
            ],
            [
              85.029419,
              27.773871
            ],
            [
              85.0288118,
              27.7738155
            ],
            [
              85.0282257,
              27.7738234
            ],
            [
              85.0276355,
              27.7738964
            ],
            [
              85.0271682,
              27.7740046
            ],
            [
              85.0267161,
              27.7742181
            ],
            [
              85.0263904,
              27.7744841
            ],
            [
              85.0262457,
              27.7747582
            ],
            [
              85.0254309,
              27.7766064
            ],
            [
              85.0250295,
              27.7774344
            ],
            [
              85.0247863,
              27.7773549
            ],
            [
              85.0246046,
              27.7772929
            ],
            [
              85.0242613,
              27.7772144
            ],
            [
              85.023958,
              27.7770979
            ],
            [
              85.0238149,
              27.7770878
            ],
            [
              85.023782,
              27.7770068
            ],
            [
              85.0238049,
              27.7768132
            ],
            [
              85.0238207,
              27.776617
            ],
            [
              85.0237806,
              27.7764714
            ],
            [
              85.0237434,
              27.77636
            ],
            [
              85.0236848,
              27.7761714
            ],
            [
              85.0235345,
              27.7759664
            ],
            [
              85.0234115,
              27.7758234
            ],
            [
              85.0232184,
              27.7757107
            ],
            [
              85.0229738,
              27.7756107
            ],
            [
              85.0228078,
              27.7755094
            ],
            [
              85.0227005,
              27.7753462
            ],
            [
              85.022629,
              27.7751816
            ],
            [
              85.0225861,
              27.7750601
            ],
            [
              85.0224888,
              27.7749538
            ],
            [
              85.0223042,
              27.7749209
            ],
            [
              85.0221612,
              27.7749209
            ],
            [
              85.0219909,
              27.7748918
            ],
            [
              85.0217792,
              27.7749031
            ],
            [
              85.0215875,
              27.7748437
            ],
            [
              85.0214688,
              27.7747589
            ],
            [
              85.0213744,
              27.7745766
            ],
            [
              85.0212957,
              27.7745171
            ],
            [
              85.0211455,
              27.7744753
            ],
            [
              85.0210396,
              27.7743209
            ],
            [
              85.0209767,
              27.7741513
            ],
            [
              85.0209023,
              27.7739272
            ],
            [
              85.0209209,
              27.7737703
            ],
            [
              85.0209881,
              27.7735792
            ],
            [
              85.0210611,
              27.7733817
            ],
            [
              85.0211584,
              27.7732285
            ],
            [
              85.0212099,
              27.7731653
            ],
            [
              85.0212814,
              27.7730918
            ],
            [
              85.0213057,
              27.7728792
            ],
            [
              85.0212299,
              27.7726729
            ],
            [
              85.0211154,
              27.7724931
            ],
            [
              85.0210038,
              27.7724121
            ],
            [
              85.0208493,
              27.7723425
            ],
            [
              85.020732,
              27.7721881
            ],
            [
              85.0206977,
              27.7720362
            ],
            [
              85.020722,
              27.7718425
            ],
            [
              85.0207607,
              27.7716881
            ],
            [
              85.0207303,
              27.7715073
            ],
            [
              85.0204839,
              27.7712787
            ],
            [
              85.0201684,
              27.7711524
            ],
            [
              85.0197853,
              27.7711856
            ],
            [
              85.0194923,
              27.7712056
            ],
            [
              85.0191092,
              27.7711391
            ],
            [
              85.0188838,
              27.77082
            ],
            [
              85.0186885,
              27.7704212
            ],
            [
              85.018741,
              27.7697498
            ],
            [
              85.0187561,
              27.7693444
            ],
            [
              85.0190115,
              27.7691184
            ],
            [
              85.0192218,
              27.7688724
            ],
            [
              85.0201759,
              27.7678554
            ],
            [
              85.020822,
              27.7677357
            ],
            [
              85.0210549,
              27.767656
            ],
            [
              85.0210248,
              27.7674765
            ],
            [
              85.0209121,
              27.7668516
            ],
            [
              85.0208746,
              27.7663398
            ],
            [
              85.0202736,
              27.7661537
            ],
            [
              85.019551,
              27.7662762
            ],
            [
              85.0191606,
              27.7662747
            ],
            [
              85.0189844,
              27.7662094
            ],
            [
              85.0189598,
              27.7661297
            ],
            [
              85.0191155,
              27.7658977
            ],
            [
              85.0194965,
              27.7656984
            ],
            [
              85.0197382,
              27.7656077
            ],
            [
              85.0197709,
              27.7654917
            ],
            [
              85.01973,
              27.7653794
            ],
            [
              85.0196334,
              27.7653314
            ],
            [
              85.019164,
              27.7649208
            ],
            [
              85.018987,
              27.7645292
            ],
            [
              85.0190165,
              27.7641115
            ],
            [
              85.0191459,
              27.7637271
            ],
            [
              85.0191828,
              27.7633401
            ],
            [
              85.0191754,
              27.7629937
            ],
            [
              85.0190272,
              27.7626922
            ],
            [
              85.0187965,
              27.7625877
            ],
            [
              85.0184565,
              27.7626377
            ],
            [
              85.0182715,
              27.7628347
            ],
            [
              85.0182902,
              27.7631599
            ],
            [
              85.0182071,
              27.7633355
            ],
            [
              85.0179791,
              27.7633758
            ],
            [
              85.0174903,
              27.763231
            ],
            [
              85.0171664,
              27.7631527
            ],
            [
              85.0167661,
              27.7631075
            ],
            [
              85.0164234,
              27.7631338
            ],
            [
              85.0162008,
              27.7632857
            ],
            [
              85.0157529,
              27.7637176
            ],
            [
              85.0154015,
              27.7639953
            ],
            [
              85.014967,
              27.7641804
            ],
            [
              85.0145694,
              27.7639596
            ],
            [
              85.014393,
              27.7636322
            ],
            [
              85.0143333,
              27.7634042
            ],
            [
              85.0140195,
              27.763295
            ],
            [
              85.013642,
              27.7632667
            ],
            [
              85.0131907,
              27.7633401
            ],
            [
              85.0130921,
              27.7631978
            ],
            [
              85.013188,
              27.7626091
            ],
            [
              85.0131505,
              27.7620775
            ],
            [
              85.0130707,
              27.7619399
            ],
            [
              85.0131531,
              27.7616953
            ],
            [
              85.013363,
              27.7611234
            ],
            [
              85.0133543,
              27.7608005
            ],
            [
              85.0131163,
              27.760587
            ],
            [
              85.0126898,
              27.7605965
            ],
            [
              85.0121721,
              27.7607769
            ],
            [
              85.0118905,
              27.7608173
            ],
            [
              85.0115633,
              27.7606559
            ],
            [
              85.0111797,
              27.7603687
            ],
            [
              85.0109544,
              27.7602761
            ],
            [
              85.0107801,
              27.7604256
            ],
            [
              85.0107291,
              27.7607793
            ],
            [
              85.0108444,
              27.7610926
            ],
            [
              85.0110349,
              27.7614439
            ],
            [
              85.0110161,
              27.761731
            ],
            [
              85.0109517,
              27.7621179
            ],
            [
              85.0107928,
              27.7624904
            ],
            [
              85.010536,
              27.7626543
            ],
            [
              85.0102517,
              27.7625689
            ],
            [
              85.0100445,
              27.7623053
            ],
            [
              85.0099459,
              27.7617192
            ],
            [
              85.0099271,
              27.7612658
            ],
            [
              85.0098949,
              27.7607579
            ],
            [
              85.0096965,
              27.7604256
            ],
            [
              85.0093954,
              27.7605774
            ],
            [
              85.0092531,
              27.7607712
            ],
            [
              85.0091949,
              27.7608505
            ],
            [
              85.0091627,
              27.7611472
            ],
            [
              85.0091815,
              27.7613703
            ],
            [
              85.0091117,
              27.761731
            ],
            [
              85.0091337,
              27.7618914
            ],
            [
              85.008983,
              27.7622556
            ],
            [
              85.0086604,
              27.762367
            ],
            [
              85.0083634,
              27.7623149
            ],
            [
              85.0080952,
              27.7623766
            ],
            [
              85.0077143,
              27.7623292
            ],
            [
              85.0075319,
              27.7623695
            ],
            [
              85.007322,
              27.7625735
            ],
            [
              85.0072154,
              27.7628466
            ],
            [
              85.0071832,
              27.7631361
            ],
            [
              85.007253,
              27.7633379
            ],
            [
              85.007373,
              27.7636463
            ],
            [
              85.0072744,
              27.76386
            ],
            [
              85.0070672,
              27.7639121
            ],
            [
              85.0067373,
              27.7639525
            ],
            [
              85.006402,
              27.7638362
            ],
            [
              85.0062813,
              27.7636226
            ],
            [
              85.006225,
              27.7632618
            ],
            [
              85.006113,
              27.7628513
            ],
            [
              85.0059353,
              27.7625284
            ],
            [
              85.0056859,
              27.7622365
            ],
            [
              85.0053566,
              27.7620705
            ],
            [
              85.0051528,
              27.7621773
            ],
            [
              85.0050535,
              27.7623766
            ],
            [
              85.0051394,
              27.7626472
            ],
            [
              85.0053191,
              27.7629581
            ],
            [
              85.0052467,
              27.7631527
            ],
            [
              85.0050375,
              27.763345
            ],
            [
              85.0048705,
              27.7634018
            ],
            [
              85.004672,
              27.7633045
            ],
            [
              85.0043615,
              27.7631266
            ],
            [
              85.0039585,
              27.7631028
            ],
            [
              85.0036963,
              27.7631883
            ],
            [
              85.0034067,
              27.7633189
            ],
            [
              85.0032001,
              27.763364
            ],
            [
              85.0030338,
              27.7634589
            ],
            [
              85.0027703,
              27.7635324
            ],
            [
              85.0025618,
              27.7635277
            ],
            [
              85.0024062,
              27.7634399
            ],
            [
              85.0022265,
              27.7632643
            ],
            [
              85.0020548,
              27.7630697
            ],
            [
              85.0018456,
              27.7628181
            ],
            [
              85.0017459,
              27.7627684
            ],
            [
              85.0018561,
              27.762525
            ],
            [
              85.0018631,
              27.7623784
            ],
            [
              85.0018731,
              27.7621708
            ],
            [
              85.0018127,
              27.7620954
            ],
            [
              85.0017071,
              27.7619636
            ],
            [
              85.0016602,
              27.7617413
            ],
            [
              85.0017965,
              27.7615228
            ],
            [
              85.0019862,
              27.7612852
            ],
            [
              85.0020612,
              27.7611451
            ],
            [
              85.0021056,
              27.7609928
            ],
            [
              85.0021195,
              27.7608576
            ],
            [
              85.0021417,
              27.7607323
            ],
            [
              85.0021501,
              27.7605701
            ],
            [
              85.0020418,
              27.7603834
            ],
            [
              85.0019779,
              27.7602089
            ],
            [
              85.0020029,
              27.7600295
            ],
            [
              85.0020834,
              27.7598821
            ],
            [
              85.0020945,
              27.759688
            ],
            [
              85.0020418,
              27.7594398
            ],
            [
              85.0018363,
              27.759226
            ],
            [
              85.0016891,
              27.7591278
            ],
            [
              85.0015586,
              27.7589066
            ],
            [
              85.0014531,
              27.7587346
            ],
            [
              85.0014364,
              27.7585896
            ],
            [
              85.0014836,
              27.7584864
            ],
            [
              85.0015503,
              27.7584373
            ],
            [
              85.0016808,
              27.758393
            ],
            [
              85.0018835,
              27.7584053
            ],
            [
              85.0021723,
              27.7585061
            ],
            [
              85.0024055,
              27.7586068
            ],
            [
              85.002611,
              27.7586609
            ],
            [
              85.002822,
              27.7586805
            ],
            [
              85.0031497,
              27.7586314
            ],
            [
              85.0035995,
              27.7585257
            ],
            [
              85.003955,
              27.7584643
            ],
            [
              85.0040938,
              27.7584029
            ],
            [
              85.0041995,
              27.7583649
            ],
            [
              85.004313,
              27.7582942
            ],
            [
              85.004424,
              27.758148
            ],
            [
              85.0044781,
              27.7579882
            ],
            [
              85.0046381,
              27.7577713
            ],
            [
              85.0047026,
              27.7576229
            ],
            [
              85.0047207,
              27.7575133
            ],
            [
              85.0048342,
              27.7573992
            ],
            [
              85.0049967,
              27.7573078
            ],
            [
              85.0051902,
              27.7572302
            ],
            [
              85.0054431,
              27.7571366
            ],
            [
              85.0055695,
              27.7570749
            ],
            [
              85.0059005,
              27.757005
            ],
            [
              85.0063101,
              27.7569319
            ],
            [
              85.0065133,
              27.7568649
            ],
            [
              85.0066475,
              27.7567766
            ],
            [
              85.0066544,
              27.7566791
            ],
            [
              85.0066191,
              27.7563507
            ],
            [
              85.0066529,
              27.7560935
            ],
            [
              85.0066935,
              27.7557944
            ],
            [
              85.0066259,
              27.7555851
            ],
            [
              85.0063285,
              27.7555013
            ],
            [
              85.0060379,
              27.7551006
            ],
            [
              85.0058013,
              27.7546939
            ],
            [
              85.0054364,
              27.7542812
            ],
            [
              85.0051457,
              27.7539642
            ],
            [
              85.0048878,
              27.7539062
            ],
            [
              85.004819,
              27.7539093
            ],
            [
              85.0047054,
              27.7538819
            ],
            [
              85.0046124,
              27.7537874
            ],
            [
              85.0045505,
              27.7536473
            ],
            [
              85.0045505,
              27.7535376
            ],
            [
              85.0045849,
              27.7534158
            ],
            [
              85.0046365,
              27.7533244
            ],
            [
              85.0046027,
              27.753185
            ],
            [
              85.0044811,
              27.7531304
            ],
            [
              85.0043715,
              27.753166
            ],
            [
              85.0042751,
              27.7532086
            ],
            [
              85.0041408,
              27.7532787
            ],
            [
              85.0040066,
              27.7532574
            ],
            [
              85.0038827,
              27.7531903
            ],
            [
              85.0038172,
              27.7530624
            ],
            [
              85.0037725,
              27.7529101
            ],
            [
              85.0037897,
              27.7527395
            ],
            [
              85.0037932,
              27.7524775
            ],
            [
              85.0037966,
              27.7522673
            ],
            [
              85.0038257,
              27.7519817
            ],
            [
              85.0038579,
              27.7517586
            ],
            [
              85.0039008,
              27.7510322
            ],
            [
              85.0037828,
              27.7507711
            ],
            [
              85.003579,
              27.7506192
            ],
            [
              85.003359,
              27.7505385
            ],
            [
              85.0032196,
              27.7505955
            ],
            [
              85.0030479,
              27.7506002
            ],
            [
              85.0029031,
              27.7505195
            ],
            [
              85.0027475,
              27.7503913
            ],
            [
              85.0026134,
              27.7502916
            ],
            [
              85.0026395,
              27.7484068
            ],
            [
              85.0026565,
              27.7472613
            ],
            [
              85.0022989,
              27.7467187
            ],
            [
              85.0016006,
              27.7467941
            ],
            [
              85.0011238,
              27.7457541
            ],
            [
              85.0016177,
              27.7449251
            ],
            [
              85.0027247,
              27.7444879
            ],
            [
              85.00344,
              27.7432821
            ],
            [
              85.0032697,
              27.7410211
            ],
            [
              85.0029801,
              27.7401318
            ],
            [
              85.0019412,
              27.7385641
            ],
            [
              85.0017709,
              27.737524
            ],
            [
              85.0017369,
              27.7348408
            ],
            [
              85.0018561,
              27.732444
            ],
            [
              85.0007661,
              27.7303184
            ],
            [
              85.0007831,
              27.7265195
            ],
            [
              85.0000678,
              27.7234893
            ],
            [
              84.997973,
              27.7191926
            ],
            [
              84.9980582,
              27.7166748
            ],
            [
              84.9987735,
              27.7136292
            ],
            [
              84.999046,
              27.7108098
            ],
            [
              84.997939,
              27.7090155
            ],
            [
              84.9978153,
              27.7062782
            ],
            [
              85.0038657,
              27.7055325
            ],
            [
              85.0055177,
              27.7056079
            ],
            [
              85.0100991,
              27.7072212
            ],
            [
              85.0126707,
              27.7073569
            ],
            [
              85.0146634,
              27.7063919
            ],
            [
              85.0185294,
              27.703527
            ],
            [
              85.0223103,
              27.7035119
            ],
            [
              85.0231448,
              27.7019287
            ],
            [
              85.0250352,
              27.7005565
            ],
            [
              85.0277942,
              27.7002398
            ],
            [
              85.0298644,
              27.6986666
            ],
            [
              85.0306384,
              27.6975256
            ],
            [
              85.0312292,
              27.6975291
            ],
            [
              85.0328438,
              27.698119
            ],
            [
              85.0330909,
              27.7004509
            ],
            [
              85.0346066,
              27.700662
            ],
            [
              85.0352708,
              27.7012954
            ],
            [
              85.0344874,
              27.7033612
            ],
            [
              85.0350665,
              27.7038588
            ],
            [
              85.03757,
              27.7030747
            ],
            [
              85.0384216,
              27.7033762
            ],
            [
              85.038847,
              27.7053738
            ],
            [
              85.0419548,
              27.7018945
            ],
            [
              85.0404558,
              27.6934306
            ],
            [
              85.041177,
              27.6916794
            ]
          ]
        ]
      },
      "id": "relation/10524863"
    },
    {
      "type": "Feature",
      "properties": {
        "@id": "node/13235260366",
        "@relations": [
          {
            "role": "admin_centre",
            "rel": 10524863,
            "reltags": {
              "admin_level": "7",
              "boundary": "administrative",
              "name": "थाक्रे गाउँपालिका",
              "name:en": "Thakre",
              "name:fa": "دهداری تاکره",
              "name:ne": "थाक्रे गाउँपालिका",
              "name:suffix": "Gaunpalika",
              "name:suffix:en": "Rural Municipality",
              "name:ur": "تھاکرے دیہی بلدیہ",
              "type": "boundary"
            }
          }
        ]
      },
      "geometry": {
        "type": "Point",
        "coordinates": [
          85.0686768,
          27.7501345
        ]
      },
      "id": "node/13235260366"
    }
  ]
}